BEESAT-4                
1 41619U 16040W   21205.12398105  .00003826  00000-0  15270-3 0  9998
2 41619  97.2672 260.1864 0010208 192.1546 167.9448 15.25709394270601
CAS-2T & KS-1Q          
1 41847U 16066G   21205.41858143  .00000290  00000-0  52718-4 0  9995
2 41847  98.5989 264.6976 0366325 110.0215 254.0800 14.38214876247195
NAYIF-1 (EO-88)         
1 42017U 17008BX  21205.22676954  .00003609  00000-0  13321-3 0  9992
2 42017  97.3142 272.1690 0005373 355.8049   4.3145 15.28393027246875
ZHUHAI-1 02 (CAS-4B)    
1 42759U 17034B   21205.46833375  .00000554  00000-0  46580-4 0  9992
2 42759  43.0191 337.5796 0008159  26.2262  85.3072 15.10277549226747
ZHUHAI-1 01 (CAS-4A)    
1 42761U 17034D   21205.58944512  .00000528  00000-0  44936-4 0  9998
2 42761  43.0188 335.9407 0008498  28.6007  83.0288 15.10365672226767
MAX VALIER SAT          
1 42778U 17036P   21205.08073512  .00002321  00000-0  99211-4 0  9995
2 42778  97.2525 252.4878 0013182  53.1513 307.0931 15.23741258226864
RADFXSAT (FOX-1B)       
1 43017U 17073E   21205.46134844  .00000667  00000-0  56575-4 0  9998
2 43017  97.7035 107.9810 0254659 179.3170 180.8442 14.79609309198590
FOX-1D (AO-92)          
1 43137U 18004AC  21205.46332806  .00002431  00000-0  99015-4 0  9991
2 43137  97.4056 279.1170 0010473  83.3413 276.9017 15.25400380196304
DIWATA-2B               
1 43678U 18084H   21205.61367730 -.00000192  00000-0 -13230-4 0  9999
2 43678  97.9280 331.0934 0008713 292.3547  67.6732 14.91765172148972
ES'HAIL 2               
1 43700U 18090A   21205.31410583  .00000128  00000-0  00000-0 0  9998
2 43700   0.0157  86.4208 0001803  62.8472 291.8297  1.00272316  9737
FOX-1CLIFF (AO-95)      
1 43770U 18099N   21205.45425338  .00000474  00000-0  48081-4 0  9992
2 43770  97.6631 274.8220 0013089 296.3249  63.6627 14.95363804143984
ITASAT 1                
1 43786U 18099AE  21205.43317041  .00000124  00000-0  16265-4 0  9999
2 43786  97.6657 275.5054 0013652 289.3670  70.6075 14.95655855144018
JY1SAT (JO-97)          
1 43803U 18099AX  21205.19016428  .00000575  00000-0  56426-4 0  9990
2 43803  97.6612 275.0152 0013632 289.1635  70.8110 14.95906425143989
UWE-4                   
1 43880U 18111E   21205.48338270  .00001021  00000-0  93848-4 0  9990
2 43880  97.6839 112.5816 0011692 347.8096  12.2841 14.96914149140626
NEXUS (FO-99)           
1 43937U 19003F   21205.37467895  .00002808  00000-0  11154-3 0  9991
2 43937  97.1735 247.0755 0021470 239.0293 120.8837 15.25915535139892
PSAT2 (NO-104)          
1 44354U 19036R   21205.41369852  .00021093  00000-0  27492-3 0  9999
2 44354  28.5281 240.4084 0320155 317.1447  40.4604 15.14857115114588
BRICSAT2 (NO-103)       
1 44355U 19036S   21205.29577428  .00054854 -52334-5  56195-3 0  9992
2 44355  28.5247 189.8229 0252141  39.6267 322.2472 15.32721302115081
JAISAT-1                
1 44419U 19038F   21205.45573419  .00001645  00000-0  94224-4 0  9992
2 44419  97.5906 170.0276 0020820 180.1317 179.9912 15.13873282113391
DUCHIFAT-3              
1 44854U 19089C   21205.48309626  .00000454  00000-0  42597-4 0  9994
2 44854  36.9663 241.6442 0007212  72.9871 287.1666 14.99546071 88669
CAS-6 (TO-108)          
1 44881U 19093C   21205.48038737  .00000057  00000-0  14005-4 0  9993
2 44881  97.9238 283.9053 0015226 167.3752 192.7854 14.81464909 86211
RS-44 & BREEZE-KM R/B   
1 44909U 19096E   21205.37292685  .00000007  00000-0 -14505-4 0  9990
2 44909  82.5201  88.2844 0217727   7.0911 353.3184 12.79710829 73546
ORBITAL FACTORY 2 (OF-2)
1 45113U 19071C   21205.42777760  .00004205  00000-0  12862-3 0  9995
2 45113  51.6402 218.2029 0012381  67.1396 293.0893 15.36032874 82851
HUSKYSAT-1 (HO-107)     
1 45119U 19071J   21205.56887921  .00004419  00000-0  13461-3 0  9990
2 45119  51.6398 216.8893 0011790  64.5835 295.6367 15.36041009 82872
BY70-2                  
1 45857U 20042B   21205.49674776  .00001248  00000-0  18358-3 0  9990
2 45857  97.9832 280.8606 0012866  96.1716 264.0992 14.77132202 57016
SALSAT                  
1 46495U 20068K   21205.59809375 -.00000062  00000-0  48984-7 0  9999
2 46495  97.6932 142.8772 0015685 312.2384  47.7489 15.03492034 44913
BY70-3                  
1 46839U 20079N   21205.57757852  .00004365  00000-0  13515-3 0  9990
2 46839  97.2395 278.6996 0008918  77.2848  61.9368 15.33947851 39894
RADFXSAT-2 (AO-109)     
1 47311U 21002C   21205.35075997  .00002277  00000-0  10967-3 0  9990
2 47311  60.6850 153.0631 0039871  67.0735 293.4552 15.21767710 28487
UVSQ-SAT                
1 47438U 21006AB  21205.41309066  .00001351  00000-0  79595-4 0  9993
2 47438  97.4852 265.9726 0011923 337.4917  22.5790 15.13226647 27641
DIY-1 (ARDUIQUBE)       
1 47963U 21022AH  21205.47034279  .00003459  00000-0  23157-3 0  9994
2 47963  97.5557 107.1480 0019383 173.3374 186.8116 15.07420781 17477
